TEVEL2-1                
1 63217U 25052H   26068.64782323  .00020683  00000+0  70600-3 0  9994
2 63217  97.3991 324.7682 0004767 104.8919 255.2849 15.30341923 54855
STARLINK-35315          
1 66543U 25265AD  26067.98905385  .00028713  00000+0  10484-2 0  9991
2 66543  43.0051 282.1148 0002391 271.0191  89.0386 15.27594453 17008
